[
  {
    "OBJECT_NAME": "STARLINK-31038",
    "OBJECT_ID": "2023-200S",
    "EPOCH": "2025-06-07T12:31:56.032320",
    "MEAN_MOTION": 15.02540563,
    "ECCENTRICITY": 0.0001938,
    "INCLINATION": 43.0031,
    "RA_OF_ASC_NODE": 225.2917,
    "ARG_OF_PERICENTER": 277.833,
    "MEAN_ANOMALY": 82.2292,
    "EPHEMERIS_TYPE": 0,
    "CLASSIFICATION_TYPE": "U",
    "NORAD_CAT_ID": 58605,
    "ELEMENT_SET_NO": 999,
    "REV_AT_EPOCH": 8220,
    "BSTAR": 7.4175e-05,
    "MEAN_MOTION_DOT": 7.98e-06,
    "MEAN_MOTION_DDOT": 0
  },
  {
    "OBJECT_NAME": "STARLINK-31082",
    "OBJECT_ID": "2023-200T",
    "EPOCH": "2025-06-07T11:00:59.967360",
    "MEAN_MOTION": 15.02539452,
    "ECCENTRICITY": 0.0001573,
    "INCLINATION": 43.0015,
    "RA_OF_ASC_NODE": 225.6784,
    "ARG_OF_PERICENTER": 284.5123,
    "MEAN_ANOMALY": 75.5545,
    "EPHEMERIS_TYPE": 0,
    "CLASSIFICATION_TYPE": "U",
    "NORAD_CAT_ID": 58606,
    "ELEMENT_SET_NO": 999,
    "REV_AT_EPOCH": 8219,
    "BSTAR": -1.3189e-05,
    "MEAN_MOTION_DOT": -3.82e-06,
    "MEAN_MOTION_DDOT": 0
  },
  {
    "OBJECT_NAME": "STARLINK-31069",
    "OBJECT_ID": "2023-200U",
    "EPOCH": "2025-06-07T12:27:08.424864",
    "MEAN_MOTION": 15.02535213,
    "ECCENTRICITY": 0.0001309,
    "INCLINATION": 43.0024,
    "RA_OF_ASC_NODE": 225.2637,
    "ARG_OF_PERICENTER": 270.5105,
    "MEAN_ANOMALY": 89.5588,
    "EPHEMERIS_TYPE": 0,
    "CLASSIFICATION_TYPE": "U",
    "NORAD_CAT_ID": 58607,
    "ELEMENT_SET_NO": 999,
    "REV_AT_EPOCH": 8220,
    "BSTAR": -1.4384e-05,
    "MEAN_MOTION_DOT": -3.98e-06,
    "MEAN_MOTION_DDOT": 0
  },
  {
    "OBJECT_NAME": "STARLINK-31067",
    "OBJECT_ID": "2023-200V",
    "EPOCH": "2025-06-07T12:22:20.794080",
    "MEAN_MOTION": 15.02535402,
    "ECCENTRICITY": 0.0001361,
    "INCLINATION": 43.002,
    "RA_OF_ASC_NODE": 225.2387,
    "ARG_OF_PERICENTER": 281.8041,
    "MEAN_ANOMALY": 78.2649,
    "EPHEMERIS_TYPE": 0,
    "CLASSIFICATION_TYPE": "U",
    "NORAD_CAT_ID": 58608,
    "ELEMENT_SET_NO": 999,
    "REV_AT_EPOCH": 8220,
    "BSTAR": 2.7621e-05,
    "MEAN_MOTION_DOT": 1.69e-06,
    "MEAN_MOTION_DDOT": 0
  },
  {
    "OBJECT_NAME": "STARLINK-31085",
    "OBJECT_ID": "2023-200W",
    "EPOCH": "2025-06-07T13:53:16.281888",
    "MEAN_MOTION": 15.02559071,
    "ECCENTRICITY": 0.0001395,
    "INCLINATION": 43.0034,
    "RA_OF_ASC_NODE": 224.8533,
    "ARG_OF_PERICENTER": 258.5685,
    "MEAN_ANOMALY": 101.5001,
    "EPHEMERIS_TYPE": 0,
    "CLASSIFICATION_TYPE": "U",
    "NORAD_CAT_ID": 58609,
    "ELEMENT_SET_NO": 999,
    "REV_AT_EPOCH": 8221,
    "BSTAR": 0.00018134,
    "MEAN_MOTION_DOT": 2.248e-05,
    "MEAN_MOTION_DDOT": 0
  },
  {
    "OBJECT_NAME": "STARLINK-31089",
    "OBJECT_ID": "2023-200X",
    "EPOCH": "2025-06-07T05:40:24.505536",
    "MEAN_MOTION": 15.0254284,
    "ECCENTRICITY": 0.0001789,
    "INCLINATION": 43.0011,
    "RA_OF_ASC_NODE": 227.3844,
    "ARG_OF_PERICENTER": 270.6301,
    "MEAN_ANOMALY": 89.4336,
    "EPHEMERIS_TYPE": 0,
    "CLASSIFICATION_TYPE": "U",
    "NORAD_CAT_ID": 58610,
    "ELEMENT_SET_NO": 999,
    "REV_AT_EPOCH": 8215,
    "BSTAR": 0.00011632,
    "MEAN_MOTION_DOT": 1.368e-05,
    "MEAN_MOTION_DDOT": 0
  },
  {
    "OBJECT_NAME": "STARLINK-31061",
    "OBJECT_ID": "2023-200Y",
    "EPOCH": "2025-06-07T12:12:44.622720",
    "MEAN_MOTION": 15.02528631,
    "ECCENTRICITY": 0.0001665,
    "INCLINATION": 43.0025,
    "RA_OF_ASC_NODE": 225.1867,
    "ARG_OF_PERICENTER": 261.8826,
    "MEAN_ANOMALY": 98.1827,
    "EPHEMERIS_TYPE": 0,
    "CLASSIFICATION_TYPE": "U",
    "NORAD_CAT_ID": 58611,
    "ELEMENT_SET_NO": 999,
    "REV_AT_EPOCH": 8220,
    "BSTAR": 0.0001041,
    "MEAN_MOTION_DOT": 1.203e-05,
    "MEAN_MOTION_DDOT": 0
  },
  {
    "OBJECT_NAME": "STARLINK-31054",
    "OBJECT_ID": "2023-203B",
    "EPOCH": "2025-06-07T18:22:10.175520",
    "MEAN_MOTION": 15.27577084,
    "ECCENTRICITY": 0.000145,
    "INCLINATION": 43.0009,
    "RA_OF_ASC_NODE": 179.8625,
    "ARG_OF_PERICENTER": 282.7758,
    "MEAN_ANOMALY": 77.2932,
    "EPHEMERIS_TYPE": 0,
    "CLASSIFICATION_TYPE": "U",
    "NORAD_CAT_ID": 58619,
    "ELEMENT_SET_NO": 999,
    "REV_AT_EPOCH": 8262,
    "BSTAR": 7.1923e-05,
    "MEAN_MOTION_DOT": 1.717e-05,
    "MEAN_MOTION_DDOT": 0
  },
  {
    "OBJECT_NAME": "STARLINK-31134",
    "OBJECT_ID": "2023-203D",
    "EPOCH": "2025-06-07T11:02:46.347360",
    "MEAN_MOTION": 15.27615138,
    "ECCENTRICITY": 9.42e-05,
    "INCLINATION": 43.0037,
    "RA_OF_ASC_NODE": 181.8714,
    "ARG_OF_PERICENTER": 266.5634,
    "MEAN_ANOMALY": 93.511,
    "EPHEMERIS_TYPE": 0,
    "CLASSIFICATION_TYPE": "U",
    "NORAD_CAT_ID": 58621,
    "ELEMENT_SET_NO": 999,
    "REV_AT_EPOCH": 8146,
    "BSTAR": 0.00016766,
    "MEAN_MOTION_DOT": 4.359e-05,
    "MEAN_MOTION_DDOT": 0
  },
  {
    "OBJECT_NAME": "STARLINK-31133",
    "OBJECT_ID": "2023-203E",
    "EPOCH": "2025-06-07T18:16:25.575168",
    "MEAN_MOTION": 15.27093132,
    "ECCENTRICITY": 5.4e-05,
    "INCLINATION": 43.0024,
    "RA_OF_ASC_NODE": 179.828,
    "ARG_OF_PERICENTER": 273.2325,
    "MEAN_ANOMALY": 86.8465,
    "EPHEMERIS_TYPE": 0,
    "CLASSIFICATION_TYPE": "U",
    "NORAD_CAT_ID": 58622,
    "ELEMENT_SET_NO": 999,
    "REV_AT_EPOCH": 8151,
    "BSTAR": -0.007412,
    "MEAN_MOTION_DOT": -0.00195976,
    "MEAN_MOTION_DDOT": 0
  },
  {
    "OBJECT_NAME": "STARLINK-31068",
    "OBJECT_ID": "2023-203F",
    "EPOCH": "2025-06-07T18:11:02.227488",
    "MEAN_MOTION": 15.27582374,
    "ECCENTRICITY": 0.0001395,
    "INCLINATION": 42.9977,
    "RA_OF_ASC_NODE": 179.8014,
    "ARG_OF_PERICENTER": 282.0897,
    "MEAN_ANOMALY": 77.9798,
    "EPHEMERIS_TYPE": 0,
    "CLASSIFICATION_TYPE": "U",
    "NORAD_CAT_ID": 58623,
    "ELEMENT_SET_NO": 999,
    "REV_AT_EPOCH": 8268,
    "BSTAR": 2.1128e-05,
    "MEAN_MOTION_DOT": 3.19e-06,
    "MEAN_MOTION_DDOT": 0
  },
  {
    "OBJECT_NAME": "STARLINK-31129",
    "OBJECT_ID": "2023-203G",
    "EPOCH": "2025-06-07T10:16:33.036960",
    "MEAN_MOTION": 15.27590081,
    "ECCENTRICITY": 0.00013,
    "INCLINATION": 42.9982,
    "RA_OF_ASC_NODE": 181.6286,
    "ARG_OF_PERICENTER": 275.1753,
    "MEAN_ANOMALY": 84.895,
    "EPHEMERIS_TYPE": 0,
    "CLASSIFICATION_TYPE": "U",
    "NORAD_CAT_ID": 58624,
    "ELEMENT_SET_NO": 999,
    "REV_AT_EPOCH": 8146,
    "BSTAR": -2.0756e-06,
    "MEAN_MOTION_DOT": -3.19e-06,
    "MEAN_MOTION_DDOT": 0
  },
  {
    "OBJECT_NAME": "STARLINK-30774",
    "OBJECT_ID": "2023-203H",
    "EPOCH": "2025-06-07T18:01:46.601184",
    "MEAN_MOTION": 15.27591501,
    "ECCENTRICITY": 0.0001268,
    "INCLINATION": 43.001,
    "RA_OF_ASC_NODE": 179.7527,
    "ARG_OF_PERICENTER": 272.5649,
    "MEAN_ANOMALY": 87.5057,
    "EPHEMERIS_TYPE": 0,
    "CLASSIFICATION_TYPE": "U",
    "NORAD_CAT_ID": 58625,
    "ELEMENT_SET_NO": 999,
    "REV_AT_EPOCH": 8274,
    "BSTAR": 8.3015e-05,
    "MEAN_MOTION_DOT": 2.024e-05,
    "MEAN_MOTION_DDOT": 0
  },
  {
    "OBJECT_NAME": "STARLINK-31086",
    "OBJECT_ID": "2023-203J",
    "EPOCH": "2025-06-07T12:42:21.082752",
    "MEAN_MOTION": 15.27562352,
    "ECCENTRICITY": 0.0001346,
    "INCLINATION": 43,
    "RA_OF_ASC_NODE": 180.6718,
    "ARG_OF_PERICENTER": 274.6534,
    "MEAN_ANOMALY": 85.4164,
    "EPHEMERIS_TYPE": 0,
    "CLASSIFICATION_TYPE": "U",
    "NORAD_CAT_ID": 58626,
    "ELEMENT_SET_NO": 999,
    "REV_AT_EPOCH": 8148,
    "BSTAR": -3.0243e-05,
    "MEAN_MOTION_DOT": -1.094e-05,
    "MEAN_MOTION_DDOT": 0
  }
]