58605,STARLINK-31038,2023,95.84,-1.0,+,43.0,Active,0,LEO,USA,USA,Unknown,Unknown,Unknown,1 58605U 23200S   25158.52217630  .00000798  00000+0  74175-4 0  9999,2 58605  43.0031 225.2917 0001938 277.8330  82.2292 15.02540563 82204,15.02540563,0.0001938,LEO
58606,STARLINK-31082,2023,95.84,-1.0,+,43.0,Active,0,LEO,USA,USA,Unknown,Unknown,Unknown,1 58606U 23200T   25158.45902740 -.00000382  00000+0 -13189-4 0  9994,2 58606  43.0015 225.6784 0001573 284.5123  75.5545 15.02539452 82192,15.02539452,0.0001573,LEO
58607,STARLINK-31069,2023,95.84,-1.0,+,43.0,Active,0,LEO,USA,USA,Unknown,Unknown,Unknown,1 58607U 23200U   25158.51884751 -.00000398  00000+0 -14384-4 0  9998,2 58607  43.0024 225.2637 0001309 270.5105  89.5588 15.02535213 82203,15.02535213,0.0001309,LEO
58608,STARLINK-31067,2023,95.84,-1.0,+,43.0,Active,0,LEO,USA,USA,Unknown,Unknown,Unknown,1 58608U 23200V   25158.51551845  .00000169  00000+0  27621-4 0  9996,2 58608  43.0020 225.2387 0001361 281.8041  78.2649 15.02535402 82207,15.02535402,0.0001361,LEO
58609,STARLINK-31085,2023,95.84,-1.0,+,43.0,Active,0,LEO,USA,USA,Unknown,Unknown,Unknown,1 58609U 23200W   25158.57866067  .00002248  00000+0  18134-3 0  9996,2 58609  43.0034 224.8533 0001395 258.5685 101.5001 15.02559071 82214,15.02559071,0.0001395,LEO
58610,STARLINK-31089,2023,95.84,-1.0,+,43.0,Active,0,LEO,USA,USA,Unknown,Unknown,Unknown,1 58610U 23200X   25158.23639474  .00001368  00000+0  11632-3 0  9999,2 58610  43.0011 227.3844 0001789 270.6301  89.4336 15.02542840 82155,15.0254284,0.0001789,LEO
58611,STARLINK-31061,2023,95.84,-1.0,+,43.0,Active,0,LEO,USA,USA,Unknown,Unknown,Unknown,1 58611U 23200Y   25158.50884980  .00001203  00000+0  10410-3 0  9995,2 58611  43.0025 225.1867 0001665 261.8826  98.1827 15.02528631 82209,15.02528631,0.0001665,LEO
58619,STARLINK-31054,2023,94.27,-1.0,+,43.0,Active,0,LEO,USA,USA,Unknown,Unknown,Unknown,1 58619U 23203B   25158.76539555  .00001717  00000+0  71923-4 0  9996,2 58619  43.0009 179.8625 0001450 282.7758  77.2932 15.27577084 82628,15.27577084,0.000145,LEO
58621,STARLINK-31134,2023,94.26,-1.0,+,43.0,Active,0,LEO,USA,USA,Unknown,Unknown,Unknown,1 58621U 23203D   25158.46025865  .00004359  00000+0  16766-3 0  9998,2 58621  43.0037 181.8714 0000942 266.5634  93.5110 15.27615138 81465,15.27615138,9.42e-05,LEO
58622,STARLINK-31133,2023,94.3,-1.0,+,43.0,Active,0,LEO,USA,USA,Unknown,Unknown,Unknown,1 58622U 23203E   25158.76140712 -.00195976  00000+0 -74120-2 0  9996,2 58622  43.0024 179.8280 0000540 273.2325  86.8465 15.27093132 81511,15.27093132,5.4e-05,LEO
58623,STARLINK-31068,2023,94.27,-1.0,+,43.0,Active,0,LEO,USA,USA,Unknown,Unknown,Unknown,1 58623U 23203F   25158.75766467  .00000319  00000+0  21128-4 0  9993,2 58623  42.9977 179.8014 0001395 282.0897  77.9798 15.27582374 82683,15.27582374,0.0001395,LEO
58624,STARLINK-31129,2023,94.27,-1.0,+,43.0,Active,0,LEO,USA,USA,Unknown,Unknown,Unknown,1 58624U 23203G   25158.42816015 -.00000319  00000+0 -20756-5 0  9992,2 58624  42.9982 181.6286 0001300 275.1753  84.8950 15.27590081 81468,15.27590081,0.00013,LEO
58625,STARLINK-30774,2023,94.27,-1.0,+,43.0,Active,0,LEO,USA,USA,Unknown,Unknown,Unknown,1 58625U 23203H   25158.75123381  .00002024  00000+0  83015-4 0  9995,2 58625  43.0010 179.7527 0001268 272.5649  87.5057 15.27591501 82745,15.27591501,0.0001268,LEO
58626,STARLINK-31086,2023,94.27,-1.0,+,43.0,Active,0,LEO,USA,USA,Unknown,Unknown,Unknown,1 58626U 23203J   25158.52941068 -.00001094  00000+0 -30243-4 0  9994,2 58626  43.0000 180.6718 0001346 274.6534  85.4164 15.27562352 81489,15.27562352,0.0001346,LEO
